[{"OBJECT_NAME":"STARLINK-31089","OBJECT_ID":"2023-200X","EPOCH":"2026-03-09T07:33:09.471744","MEAN_MOTION":15.26736652,"ECCENTRICITY":0.00011772,"INCLINATION":43.0021,"RA_OF_ASC_NODE":170.8996,"ARG_OF_PERICENTER":274.4243,"MEAN_ANOMALY":85.6473,"EPHEMERIS_TYPE":0,"CLASSIFICATION_TYPE":"U","NORAD_CAT_ID":58610,"ELEMENT_SET_NO":999,"REV_AT_EPOCH":12355,"BSTAR":2.9279419e-5,"MEAN_MOTION_DOT":5.26e-6,"MEAN_MOTION_DDOT":0},{"OBJECT_NAME":"CZ-6A DEB","OBJECT_ID":"2024-140RA","EPOCH":"2026-03-09T01:51:18.259488","MEAN_MOTION":15.31763252,"ECCENTRICITY":0.00411794,"INCLINATION":89.1856,"RA_OF_ASC_NODE":296.0787,"ARG_OF_PERICENTER":96.6516,"MEAN_ANOMALY":263.9425,"EPHEMERIS_TYPE":0,"CLASSIFICATION_TYPE":"U","NORAD_CAT_ID":61156,"ELEMENT_SET_NO":999,"REV_AT_EPOCH":8391,"BSTAR":0.0079173326,"MEAN_MOTION_DOT":0.00256788,"MEAN_MOTION_DDOT":0}]
